NORAD_CAT_ID,OBJECT_NAME,OBJECT_TYPE,EPOCH,MEAN_MOTION,ECCENTRICITY,INCLINATION,RA_OF_ASC_NODE,ARG_OF_PERICENTER,MEAN_ANOMALY,BSTAR,MEAN_MOTION_DOT,MEAN_MOTION_DDOT,TLE_LINE0,TLE_LINE1,TLE_LINE2,SEMIMAJOR_AXIS,PERIOD,APOGEE,PERIGEE,DECAYED
50183.0,STARLINK-3281,PAYLOAD,2022-04-24 06:00:00,15.08848818,0.0002685,53.2181,123.2667,30.0318,340.6467,-0.0011352,-0.00018315,0.0,0 STARLINK-3281,1 50183U 21125AD  22114.25001157 -.00018315  00000-0 -11352-2 0  9993,2 50183  53.2181 123.2667 0002685  30.0318 340.6467 15.08848818 19834,6917.853,95.437,541.576,537.861,0.0
50183.0,STARLINK-3281,PAYLOAD,2022-04-24 14:00:01,15.08850092,0.0002743,53.2177,121.7705,28.6522,353.6175,-0.00036701,-6.127e-05,0.0,0 STARLINK-3281,1 50183U 21125AD  22114.58334491 -.00006127  00000-0 -36701-3 0  9993,2 50183  53.2177 121.7705 0002743  28.6522 353.6175 15.08850092  3605,6917.85,95.437,541.612,537.817,0.0
50183.0,STARLINK-3281,PAYLOAD,2022-04-25 14:00:01,15.08837153,0.0002801,53.2173,117.2816,26.025,30.9467,-0.00085733,-0.00013907,0.0,0 STARLINK-3281,1 50183U 21125AD  22115.58334491 -.00013907  00000-0 -85733-3 0  9997,2 50183  53.2173 117.2816 0002801  26.0250  30.9467 15.08837153 20037,6917.889,95.438,541.692,537.816,0.0
50183.0,STARLINK-3281,PAYLOAD,2022-04-25 22:00:00,15.08812759,0.0002578,53.2172,115.7838,29.8863,38.6782,0.0029254,0.00046544,0.0,0 STARLINK-3281,1 50183U 21125AD  22115.91667824  .00046544  00000-0  29254-2 0  9999,2 50183  53.2172 115.7838 0002578  29.8863  38.6782 15.08812759  3609,6917.964,95.439,541.612,538.045,0.0
50183.0,STARLINK-3281,PAYLOAD,2022-04-26 06:00:00,15.08846352,0.0002785,53.2172,114.2892,29.5844,50.5635,-0.0010737,-0.0001734,0.0,0 STARLINK-3281,1 50183U 21125AD  22116.25001157 -.00017340  00000-0 -10737-2 0  9998,2 50183  53.2172 114.2892 0002785  29.5844  50.5635 15.08846352 20132,6917.861,95.437,541.653,537.799,0.0
50183.0,STARLINK-3281,PAYLOAD,2022-04-26 14:00:01,15.08854425,0.0002826,53.2167,112.7924,28.8164,62.9848,-0.0010918,-0.00017631,0.0,0 STARLINK-3281,1 50183U 21125AD  22116.58335648 -.00017631  00000-0 -10918-2 0  9993,2 50183  53.2167 112.7924 0002826  28.8164  62.9848 15.08854425  3604,6917.8359999999975,95.437,541.656,537.746,0.0
50183.0,STARLINK-3281,PAYLOAD,2022-04-26 22:00:00,15.08832894,0.000264,53.2168,111.2946,32.9277,70.4212,0.0025298,0.00040197,0.0,0 STARLINK-3281,1 50183U 21125AD  22116.91667824  .00040197  00000-0  25298-2 0  9992,2 50183  53.2168 111.2946 0002640  32.9277  70.4212 15.08832894 20231,6917.901999999999,95.438,541.5930000000002,537.941,0.0
50183.0,STARLINK-3281,PAYLOAD,2022-04-27 14:00:01,15.08871485,0.0002836,53.2164,108.303,30.0258,96.6024,-0.0034577,-0.0005495,0.0,0 STARLINK-3281,1 50183U 21125AD  22117.58335648 -.00054950  00000-0 -34577-2 0  9996,2 50183  53.2164 108.3030 0002836  30.0258  96.6024 15.08871485 20334,6917.784000000002,95.436,541.611,537.687,0.0
50183.0,STARLINK-3281,PAYLOAD,2022-04-28 06:00:00,15.08850743,0.0002884,53.2166,105.3105,32.0014,117.7768,-0.00019751,-3.432e-05,0.0,0 STARLINK-3281,1 50183U 21125AD  22118.25001157 -.00003432  00000-0 -19751-3 0  9993,2 50183  53.2166 105.3105 0002884  32.0014 117.7768 15.08850743 20436,6917.848000000001,95.437,541.7080000000002,537.717,0.0
50183.0,STARLINK-3281,PAYLOAD,2022-04-28 14:00:01,15.08888349,0.0002849,53.2165,103.8134,30.8238,130.562,-0.003913,-0.00062115,0.0,0 STARLINK-3281,1 50183U 21125AD  22118.58334491 -.00062115  00000-0 -39130-2 0  9994,2 50183  53.2165 103.8134 0002849  30.8238 130.5620 15.08888349  3563,6917.733,95.434,541.568,537.627,0.0
50183.0,STARLINK-3281,PAYLOAD,2022-04-29 14:00:01,15.08865648,0.0002788,53.2171,99.3239,29.1975,167.0154,-0.0040527,-0.00064262,0.0,0 STARLINK-3281,1 50183U 21125AD  22119.58334491 -.00064262  00000-0 -40527-2 0  9992,2 50183  53.2171  99.3239 0002788  29.1975 167.0154 15.08865648 20637,6917.802,95.436,541.596,537.738,0.0
50183.0,STARLINK-3281,PAYLOAD,2022-04-29 22:00:00,15.08814456,0.000264,53.2176,97.8265,31.9572,175.8535,0.0021773,0.00034511,0.0,0 STARLINK-3281,1 50183U 21125AD  22119.91667824  .00034511  00000-0  21773-2 0  9992,2 50183  53.2176  97.8265 0002640  31.9572 175.8535 15.08814456  3604,6917.958000000001,95.439,541.65,537.997,0.0
50183.0,STARLINK-3281,PAYLOAD,2022-04-30 06:00:00,15.08828167,0.0002875,53.2178,96.332,29.9026,189.4877,0.00036769,5.567e-05,0.0,0 STARLINK-3281,1 50183U 21125AD  22120.25001157  .00005567  00000-0  36769-3 0  9993,2 50183  53.2178  96.3320 0002875  29.9026 189.4877 15.08828167 20730,6917.917,95.438,541.77,537.793,0.0
50183.0,STARLINK-3281,PAYLOAD,2022-04-30 14:00:01,15.08851403,0.0002768,53.2178,94.8347,28.9236,202.048,-0.0035556999999999,-0.00056456,0.0,0 STARLINK-3281,1 50183U 21125AD  22120.58334491 -.00056456  00000-0 -35557-2 0  9997,2 50183  53.2178  94.8347 0002768  28.9236 202.0480 15.08851403  3579,6917.846,95.437,541.625,537.7959999999998,0.0
50183.0,STARLINK-3281,PAYLOAD,2022-04-30 22:00:00,15.08820046,0.0002621,53.2184,93.3376,31.9748,210.5833,0.0017609,0.00027833,0.0,0 STARLINK-3281,1 50183U 21125AD  22120.91667824  .00027833  00000-0  17609-2 0  9996,2 50183  53.2184  93.3376 0002621  31.9748 210.5833 15.08820046  3566,6917.941,95.439,541.62,537.993,0.0
50183.0,STARLINK-3281,PAYLOAD,2022-05-01 14:00:01,15.08863525,0.0002719,53.2184,90.3458,29.3091,236.4185,-0.0043935,-0.00069586,0.0,0 STARLINK-3281,1 50183U 21125AD  22121.58334491 -.00069586  00000-0 -43935-2 0  9995,2 50183  53.2184  90.3458 0002719  29.3091 236.4185 15.08863525 20930,6917.808000000001,95.436,541.554,537.793,0.0
50183.0,STARLINK-3281,PAYLOAD,2022-05-01 22:00:01,15.08822469,0.0002569,53.2188,88.8488,32.2207,245.1591,0.0014678,0.00023139,0.0,0 STARLINK-3281,1 50183U 21125AD  22121.91668981  .00023139  00000-0  14678-2 0  9990,2 50183  53.2188  88.8488 0002569  32.2207 245.1591 15.08822469  3609,6917.934,95.439,541.576,538.0219999999998,0.0
50183.0,STARLINK-3281,PAYLOAD,2022-05-02 06:00:00,15.08821299,0.0002819,53.2189,87.3544,30.2177,258.6844,0.0013094,0.00020602,0.0,0 STARLINK-3281,1 50183U 21125AD  22122.25001157  .00020602  00000-0  13094-2 0  9997,2 50183  53.2189  87.3544 0002819  30.2177 258.6844 15.08821299 21036,6917.938,95.439,541.753,537.852,0.0
50183.0,STARLINK-3281,PAYLOAD,2022-05-02 14:00:01,15.08851028,0.000269,53.2187,85.8571,30.5809,269.8965,-0.0018046,-0.00028904,0.0,0 STARLINK-3281,1 50183U 21125AD  22122.58334491 -.00028904  00000-0 -18046-2 0  9990,2 50183  53.2187  85.8571 0002690  30.5809 269.8965 15.08851028  3591,6917.847,95.437,541.573,537.851,0.0
50183.0,STARLINK-3281,PAYLOAD,2022-05-02 22:00:01,15.08849594,0.0002537,53.219,84.3603,33.1705,278.9642,-0.0017692,-0.00028344,0.0,0 STARLINK-3281,1 50183U 21125AD  22122.91668981 -.00028344  00000-0 -17692-2 0  9995,2 50183  53.2190  84.3603 0002537  33.1705 278.9642 15.08849594  3564,6917.851,95.437,541.471,537.961,0.0
50183.0,STARLINK-3281,PAYLOAD,2022-05-03 04:00:00,15.0882288,0.0002719,53.2188,83.2397,30.604,200.1693,-0.00022877,-3.926e-05,0.0,0 STARLINK-3281,1 50183U 21125AD  22123.16667824 -.00003926  00000-0 -22877-3 0  9999,2 50183  53.2188  83.2397 0002719  30.6040 200.1693 15.08822880 21174,6917.933000000001,95.439,541.679,537.9169999999998,0.0
50183.0,STARLINK-3281,PAYLOAD,2022-05-03 14:00:01,15.08840375,0.0002642,53.2186,81.3686,31.6197,303.6184,-0.0013107999999999,-0.00021091,0.0,0 STARLINK-3281,1 50183U 21125AD  22123.58334491 -.00021091  00000-0 -13108-2 0  9995,2 50183  53.2186  81.3686 0002642  31.6197 303.6184 15.08840375  3590,6917.879,95.438,541.572,537.9169999999998,0.0
50183.0,STARLINK-3281,PAYLOAD,2022-05-03 22:00:00,15.08844013,0.0002553,53.2188,79.8721,35.0353,311.7854,0.00054771,8.44e-05,0.0,0 STARLINK-3281,1 50183U 21125AD  22123.91667824  .00008440  00000-0  54771-3 0  9994,2 50183  53.2188  79.8721 0002553  35.0353 311.7854 15.08844013 21291,6917.868,95.437,541.499,537.967,0.0
50183.0,STARLINK-3281,PAYLOAD,2022-05-04 14:00:01,15.08872954,0.0002643,53.2184,76.8799,33.83,336.1978,-0.0024026,-0.00038359,0.0,0 STARLINK-3281,1 50183U 21125AD  22124.58334491 -.00038359  00000-0 -24026-2 0  9992,2 50183  53.2184  76.8799 0002643  33.8300 336.1978 15.08872954  3605,6917.78,95.435,541.4730000000002,537.816,0.0
50183.0,STARLINK-3281,PAYLOAD,2022-05-04 22:00:01,15.08851658,0.0002555,53.2186,75.3834,35.8779,345.8306,-0.00017408,-3.059e-05,0.0,0 STARLINK-3281,1 50183U 21125AD  22124.91668981 -.00003059  00000-0 -17408-3 0  9999,2 50183  53.2186  75.3834 0002555  35.8779 345.8306 15.08851658  3616,6917.845,95.437,541.477,537.942,0.0
50183.0,STARLINK-3281,PAYLOAD,2022-05-05 06:00:00,15.08837326,0.0002761,53.2185,73.8889,32.2721,0.9814,0.00086719,0.00013539,0.0,0 STARLINK-3281,1 50183U 21125AD  22125.25001157  .00013539  00000-0  86719-3 0  9996,2 50183  53.2185  73.8889 0002761  32.2721   0.9814 15.08837326 21490,6917.889,95.438,541.664,537.844,0.0
50183.0,STARLINK-3281,PAYLOAD,2022-05-05 14:00:01,15.08836466,0.0002592,53.2185,72.391,32.5782,12.2797,-0.00057633,-9.449e-05,0.0,0 STARLINK-3281,1 50183U 21125AD  22125.58334491 -.00009449  00000-0 -57633-3 0  9992,2 50183  53.2185  72.3910 0002592  32.5782  12.2797 15.08836466  3570,6917.891,95.438,541.549,537.9630000000002,0.0
50183.0,STARLINK-3281,PAYLOAD,2022-05-05 22:00:00,15.08847958,0.0002552,53.2186,70.8948,33.8703,22.568,-0.002732,-0.00043518,0.0,0 STARLINK-3281,1 50183U 21125AD  22125.91667824 -.00043518  00000-0 -27320-2 0  9992,2 50183  53.2186  70.8948 0002552  33.8703  22.5680 15.08847958 21593,6917.856,95.437,541.487,537.956,0.0
50183.0,STARLINK-3281,PAYLOAD,2022-05-06 14:00:01,15.08827704,0.0002607,53.2188,67.9022,32.6944,46.9045,0.00032946,4.957e-05,0.0,0 STARLINK-3281,1 50183U 21125AD  22126.58334491  .00004957  00000-0  32946-3 0  9990,2 50183  53.2188  67.9022 0002607  32.6944  46.9045 15.08827704 21693,6917.918000000002,95.438,541.586,537.979,0.0
